{"type": "FeatureCollection", "features": [ {"type": "Feature", "properties": {"norad_id": 66706, "name": "FLOCK 4H-3", "group": "last-30-days", "lat": -31.545316215191605, "lon": 71.47246519755652, "alt_km": 519.0753200098279, "timestamp": "2025-12-21T05:44:50.290580+00:00", "meta": {"OBJECT_NAME": "FLOCK 4H-3", "OBJECT_ID": "2025-276AS", "EPOCH": "2025-12-20T14:03:40.807872", "MEAN_MOTION": 15.17453175, "ECCENTRICITY": 0.00027768, "INCLINATION": 97.4457, "RA_OF_ASC_NODE": 66.2251, "ARG_OF_PERICENTER": 257.8939, "MEAN_ANOMALY": 102.1984, "EPHEMERIS_TYPE": 0, "CLASSIFICATION_TYPE": "U", "NORAD_CAT_ID": 66706, "ELEMENT_SET_NO": 999, "REV_AT_EPOCH": 331, "BSTAR": 0.0002738759, "MEAN_MOTION_DOT": 5.416e-05, "MEAN_MOTION_DDOT": 0}, "tle": {"line1": "1 66706U 25276AS  25354.58588898  .00005416  00000+0  27388-3 0  9991", "line2": "2 66706  97.4457  66.2251 0002776 257.8939 102.1984 15.17453175  3311"}}, "geometry": {"type": "Point", "coordinates": [71.47246519755652, -31.545316215191605]}}, {"type": "Feature", "properties": {"norad_id": 66707, "name": "FLOCK 4H-4", "group": "last-30-days", "lat": -51.05849792774781, "lon": 76.16463565111098, "alt_km": 519.7289529975333, "timestamp": "2025-12-21T05:44:50.290590+00:00", "meta": {"OBJECT_NAME": "FLOCK 4H-4", "OBJECT_ID": "2025-276AT", "EPOCH": "2025-12-20T22:03:36.675936", "MEAN_MOTION": 15.17183754, "ECCENTRICITY": 0.00034626, "INCLINATION": 97.4438, "RA_OF_ASC_NODE": 66.5389, "ARG_OF_PERICENTER": 261.3626, "MEAN_ANOMALY": 98.7215, "EPHEMERIS_TYPE": 0, "CLASSIFICATION_TYPE": "U", "NORAD_CAT_ID": 66707, "ELEMENT_SET_NO": 999, "REV_AT_EPOCH": 336, "BSTAR": 0.0003160345, "MEAN_MOTION_DOT": 6.213e-05, "MEAN_MOTION_DDOT": 0}, "tle": {"line1": "1 66707U 25276AT  25354.91917449  .00006213  00000+0  31603-3 0  9998", "line2": "2 66707  97.4438  66.5389 0003462 261.3626  98.7215 15.17183754  3367"}}, "geometry": {"type": "Point", "coordinates": [76.16463565111098, -51.05849792774781]}}, {"type": "Feature", "properties": {"norad_id": 66708, "name": "FLOCK 4H-5", "group": "last-30-days", "lat": 24.924221034376426, "lon": 63.392225096984994, "alt_km": 510.92299238141277, "timestamp": "2025-12-21T05:44:50.290600+00:00", "meta": {"OBJECT_NAME": "FLOCK 4H-5", "OBJECT_ID": "2025-276AU", "EPOCH": "2025-12-20T18:33:49.032288", "MEAN_MOTION": 15.18137255, "ECCENTRICITY": 0.00010437, "INCLINATION": 97.439, "RA_OF_ASC_NODE": 66.4151, "ARG_OF_PERICENTER": 124.8939, "MEAN_ANOMALY": 235.2393, "EPHEMERIS_TYPE": 0, "CLASSIFICATION_TYPE": "U", "NORAD_CAT_ID": 66708, "ELEMENT_SET_NO": 999, "REV_AT_EPOCH": 334, "BSTAR": 0.00027319933, "MEAN_MOTION_DOT": 5.51e-05, "MEAN_MOTION_DDOT": 0}, "tle": {"line1": "1 66708U 25276AU  25354.77348417  .00005510  00000+0  27320-3 0  9996", "line2": "2 66708  97.4390  66.4151 0001043 124.8939 235.2393 15.18137255  3343"}}, "geometry": {"type": "Point", "coordinates": [63.392225096984994, 24.924221034376426]}}, {"type": "Feature", "properties": {"norad_id": 66709, "name": "FLOCK 4H-6", "group": "last-30-days", "lat": 6.624003540656511, "lon": 66.01247153154726, "alt_km": 515.9316919512785, "timestamp": "2025-12-21T05:44:50.290610+00:00", "meta": {"OBJECT_NAME": "FLOCK 4H-6", "OBJECT_ID": "2025-276AV", "EPOCH": "2025-12-20T15:28:42.720960", "MEAN_MOTION": 15.17882095, "ECCENTRICITY": 0.00024899, "INCLINATION": 97.4442, "RA_OF_ASC_NODE": 66.2978, "ARG_OF_PERICENTER": 216.2401, "MEAN_ANOMALY": 143.8664, "EPHEMERIS_TYPE": 0, "CLASSIFICATION_TYPE": "U", "NORAD_CAT_ID": 66709, "ELEMENT_SET_NO": 999, "REV_AT_EPOCH": 332, "BSTAR": 0.00021199059, "MEAN_MOTION_DOT": 4.229e-05, "MEAN_MOTION_DDOT": 0}, "tle": {"line1": "1 66709U 25276AV  25354.64493890  .00004229  00000+0  21199-3 0  9993", "line2": "2 66709  97.4442  66.2978 0002489 216.2401 143.8664 15.17882095  3323"}}, "geometry": {"type": "Point", "coordinates": [66.01247153154726, 6.624003540656511]}}, {"type": "Feature", "properties": {"norad_id": 66710, "name": "FLOCK 4H-7", "group": "last-30-days", "lat": -31.155800685141074, "lon": 71.37770502288808, "alt_km": 519.5748123903932, "timestamp": "2025-12-21T05:44:50.290622+00:00", "meta": {"OBJECT_NAME": "FLOCK 4H-7", "OBJECT_ID": "2025-276AW", "EPOCH": "2025-12-20T14:03:33.697152", "MEAN_MOTION": 15.17423858, "ECCENTRICITY": 4.14e-05, "INCLINATION": 97.4398, "RA_OF_ASC_NODE": 66.2045, "ARG_OF_PERICENTER": 41.2457, "MEAN_ANOMALY": 318.8808, "EPHEMERIS_TYPE": 0, "CLASSIFICATION_TYPE": "U", "NORAD_CAT_ID": 66710, "ELEMENT_SET_NO": 999, "REV_AT_EPOCH": 331, "BSTAR": 0.00078001, "MEAN_MOTION_DOT": 0.00015554, "MEAN_MOTION_DDOT": 0}, "tle": {"line1": "1 66710U 25276AW  25354.58580668  .00015554  00000+0  78001-3 0  9995", "line2": "2 66710  97.4398  66.2045 0000414  41.2457 318.8808 15.17423858  3314"}}, "geometry": {"type": "Point", "coordinates": [71.37770502288808, -31.155800685141074]}}, {"type": "Feature", "properties": {"norad_id": 66711, "name": "FLOCK 4H-8", "group": "last-30-days", "lat": -31.953810476358143, "lon": 71.5439432533857, "alt_km": 518.5488588946773, "timestamp": "2025-12-21T05:44:50.290634+00:00", "meta": {"OBJECT_NAME": "FLOCK 4H-8", "OBJECT_ID": "2025-276AX", "EPOCH": "2025-12-20T14:03:47.362176", "MEAN_MOTION": 15.17454367, "ECCENTRICITY": 0.0002454, "INCLINATION": 97.4438, "RA_OF_ASC_NODE": 66.2239, "ARG_OF_PERICENTER": 281.1237, "MEAN_ANOMALY": 78.9721, "EPHEMERIS_TYPE": 0, "CLASSIFICATION_TYPE": "U", "NORAD_CAT_ID": 66711, "ELEMENT_SET_NO": 999, "REV_AT_EPOCH": 331, "BSTAR": 0.00038737, "MEAN_MOTION_DOT": 7.69e-05, "MEAN_MOTION_DDOT": 0}, "tle": {"line1": "1 66711U 25276AX  25354.58596484  .00007690  00000+0  38737-3 0  9993", "line2": "2 66711  97.4438  66.2239 0002454 281.1237  78.9721 15.17454367  3319"}}, "geometry": {"type": "Point", "coordinates": [71.5439432533857, -31.953810476358143]}}, {"type": "Feature", "properties": {"norad_id": 66712, "name": "FLOCK 4H-9", "group": "last-30-days", "lat": 5.550241884797763, "lon": 66.15230660204496, "alt_km": 515.9181683713914, "timestamp": "2025-12-21T05:44:50.290647+00:00", "meta": {"OBJECT_NAME": "FLOCK 4H-9", "OBJECT_ID": "2025-276AY", "EPOCH": "2025-12-20T15:28:59.949984", "MEAN_MOTION": 15.17884555, "ECCENTRICITY": 0.00025323, "INCLINATION": 97.4434, "RA_OF_ASC_NODE": 66.2958, "ARG_OF_PERICENTER": 226.2441, "MEAN_ANOMALY": 133.8583, "EPHEMERIS_TYPE": 0, "CLASSIFICATION_TYPE": "U", "NORAD_CAT_ID": 66712, "ELEMENT_SET_NO": 999, "REV_AT_EPOCH": 332, "BSTAR": 0.00022699131, "MEAN_MOTION_DOT": 4.533e-05, "MEAN_MOTION_DDOT": 0}, "tle": {"line1": "1 66712U 25276AY  25354.64513831  .00004533  00000+0  22699-3 0  9999", "line2": "2 66712  97.4434  66.2958 0002532 226.2441 133.8583 15.17884555  3322"}}, "geometry": {"type": "Point", "coordinates": [66.15230660204496, 5.550241884797763]}}, {"type": "Feature", "properties": {"norad_id": 66713, "name": "FLOCK 4H-10", "group": "last-30-days", "lat": -48.008229368097766, "lon": 75.19361887951912, "alt_km": 519.5581114329179, "timestamp": "2025-12-21T05:44:50.290657+00:00", "meta": {"OBJECT_NAME": "FLOCK 4H-10", "OBJECT_ID": "2025-276AZ", "EPOCH": "2025-12-20T17:17:53.970720", "MEAN_MOTION": 15.17244305, "ECCENTRICITY": 0.00029503, "INCLINATION": 97.4404, "RA_OF_ASC_NODE": 66.3364, "ARG_OF_PERICENTER": 270.0344, "MEAN_ANOMALY": 90.0551, "EPHEMERIS_TYPE": 0, "CLASSIFICATION_TYPE": "U", "NORAD_CAT_ID": 66713, "ELEMENT_SET_NO": 999, "REV_AT_EPOCH": 333, "BSTAR": 0.00032981184, "MEAN_MOTION_DOT": 6.498e-05, "MEAN_MOTION_DDOT": 0}, "tle": {"line1": "1 66713U 25276AZ  25354.72076355  .00006498  00000+0  32981-3 0  9991", "line2": "2 66713  97.4404  66.3364 0002950 270.0344  90.0551 15.17244305  3338"}}, "geometry": {"type": "Point", "coordinates": [75.19361887951912, -48.008229368097766]}}, {"type": "Feature", "properties": {"norad_id": 66714, "name": "FLOCK 4H-11", "group": "last-30-days", "lat": -22.72745140279545, "lon": 70.00567703742615, "alt_km": 517.2418494473241, "timestamp": "2025-12-21T05:44:50.290667+00:00", "meta": {"OBJECT_NAME": "FLOCK 4H-11", "OBJECT_ID": "2025-276BA", "EPOCH": "2025-12-20T14:01:30.158112", "MEAN_MOTION": 15.17735435, "ECCENTRICITY": 0.0002073, "INCLINATION": 97.4428, "RA_OF_ASC_NODE": 66.2227, "ARG_OF_PERICENTER": 289.099, "MEAN_ANOMALY": 71.002, "EPHEMERIS_TYPE": 0, "CLASSIFICATION_TYPE": "U", "NORAD_CAT_ID": 66714, "ELEMENT_SET_NO": 999, "REV_AT_EPOCH": 331, "BSTAR": 0.00041951, "MEAN_MOTION_DOT": 8.402e-05, "MEAN_MOTION_DDOT": 0}, "tle": {"line1": "1 66714U 25276BA  25354.58437683  .00008402  00000+0  41951-3 0  9995", "line2": "2 66714  97.4428  66.2227 0002073 289.0990  71.0020 15.17735435  3312"}}, "geometry": {"type": "Point", "coordinates": [70.00567703742615, -22.72745140279545]}}, {"type": "Feature", "properties": {"norad_id": 66715, "name": "FLOCK 4H-12", "group": "last-30-days", "lat": 16.008768632266193, "lon": 64.71900286731528, "alt_km": 513.7555770648396, "timestamp": "2025-12-21T05:44:50.290676+00:00", "meta": {"OBJECT_NAME": "FLOCK 4H-12", "OBJECT_ID": "2025-276BB", "EPOCH": "2025-12-20T18:36:09.029664", "MEAN_MOTION": 15.18052879, "ECCENTRICITY": 0.00018434, "INCLINATION": 97.4402, "RA_OF_ASC_NODE": 66.4112, "ARG_OF_PERICENTER": 195.2777, "MEAN_ANOMALY": 164.8402, "EPHEMERIS_TYPE": 0, "CLASSIFICATION_TYPE": "U", "NORAD_CAT_ID": 66715, "ELEMENT_SET_NO": 999, "REV_AT_EPOCH": 365, "BSTAR": 0.00036409891, "MEAN_MOTION_DOT": 7.349e-05, "MEAN_MOTION_DDOT": 0}, "tle": {"line1": "1 66715U 25276BB  25354.77510451  .00007349  00000+0  36410-3 0  9995", "line2": "2 66715  97.4402  66.4112 0001843 195.2777 164.8402 15.18052879  3652"}}, "geometry": {"type": "Point", "coordinates": [64.71900286731528, 16.008768632266193]}}]}